[{"OBJECT_NAME":"STARLINK-6223","OBJECT_ID":"2023-088K","EPOCH":"2026-03-08T12:14:36.696480","MEAN_MOTION":15.02538628,"ECCENTRICITY":0.00012545,"INCLINATION":43.0026,"RA_OF_ASC_NODE":113.7455,"ARG_OF_PERICENTER":268.1992,"MEAN_ANOMALY":91.8707,"EPHEMERIS_TYPE":0,"CLASSIFICATION_TYPE":"U","NORAD_CAT_ID":57057,"ELEMENT_SET_NO":999,"REV_AT_EPOCH":15019,"BSTAR":1.7020194e-5,"MEAN_MOTION_DOT":2.6e-7,"MEAN_MOTION_DDOT":0},{"OBJECT_NAME":"COSMOS 2251 DEB","OBJECT_ID":"1993-036ACA","EPOCH":"2026-03-09T23:22:42.926880","MEAN_MOTION":15.11397769,"ECCENTRICITY":0.00294457,"INCLINATION":73.9915,"RA_OF_ASC_NODE":264.707,"ARG_OF_PERICENTER":17.2418,"MEAN_ANOMALY":133.9216,"EPHEMERIS_TYPE":0,"CLASSIFICATION_TYPE":"U","NORAD_CAT_ID":34856,"ELEMENT_SET_NO":999,"REV_AT_EPOCH":90427,"BSTAR":0.0017835642,"MEAN_MOTION_DOT":0.00030525,"MEAN_MOTION_DDOT":0}]
